{
  "type": "FeatureCollection",
  "features": [
    {
      "type": "Feature",
      "properties": {
        "norad_id": 66907,
        "name": "1998-067XT",
        "group": "last-30-days",
        "lat": -50.63164322873978,
        "lon": 82.93366819436342,
        "alt_km": 417.6844678653879,
        "timestamp": "2025-12-09T14:52:24.943208+00:00",
        "meta_object_name": "1998-067XT",
        "meta_object_id": "1998-067XT",
        "meta_epoch": "2025-12-08T19:06:53.694720",
        "meta_mean_motion": 15.50762002,
        "meta_eccentricity": 0.00049716,
        "meta_inclination": 51.6302,
        "meta_ra_of_asc_node": 161.9586,
        "meta_arg_of_pericenter": 204.3216,
        "meta_mean_anomaly": 155.7539,
        "meta_ephemeris_type": 0,
        "meta_classification_type": "U",
        "meta_norad_cat_id": 66907,
        "meta_element_set_no": 999,
        "meta_rev_at_epoch": 100,
        "meta_bstar": 0.0012614232,
        "meta_mean_motion_dot": 0.00074227,
        "meta_mean_motion_ddot": 0,
        "tle_line1": "1 66907U 98067XT  25342.79645480  .00074227  00000+0  12614-2 0  9994",
        "tle_line2": "2 66907  51.6302 161.9586 0004971 204.3216 155.7539 15.50762002  1006"
      },
      "geometry": {
        "type": "Point",
        "coordinates": [
          82.93366819436342,
          -50.63164322873978
        ]
      }
    },
    {
      "type": "Feature",
      "properties": {
        "norad_id": 66908,
        "name": "1998-067XU",
        "group": "last-30-days",
        "lat": -50.388969882965185,
        "lon": 84.66051130508096,
        "alt_km": 417.71605520998037,
        "timestamp": "2025-12-09T14:52:24.943218+00:00",
        "meta_object_name": "1998-067XU",
        "meta_object_id": "1998-067XU",
        "meta_epoch": "2025-12-08T22:12:12.980736",
        "meta_mean_motion": 15.50818267,
        "meta_eccentricity": 0.0005167,
        "meta_inclination": 51.6297,
        "meta_ra_of_asc_node": 161.3178,
        "meta_arg_of_pericenter": 203.3313,
        "meta_mean_anomaly": 156.7442,
        "meta_ephemeris_type": 0,
        "meta_classification_type": "U",
        "meta_norad_cat_id": 66908,
        "meta_element_set_no": 999,
        "meta_rev_at_epoch": 102,
        "meta_bstar": 0.0011183,
        "meta_mean_motion_dot": 0.00065818,
        "meta_mean_motion_ddot": 0,
        "tle_line1": "1 66908U 98067XU  25342.92515024  .00065818  00000+0  11183-2 0  9996",
        "tle_line2": "2 66908  51.6297 161.3178 0005167 203.3313 156.7442 15.50818267  1027"
      },
      "geometry": {
        "type": "Point",
        "coordinates": [
          84.66051130508096,
          -50.388969882965185
        ]
      }
    },
    {
      "type": "Feature",
      "properties": {
        "norad_id": 66909,
        "name": "SILVERSAT",
        "group": "last-30-days",
        "lat": -50.16309965296256,
        "lon": 86.11391839903735,
        "alt_km": 417.3653397927246,
        "timestamp": "2025-12-09T14:52:24.943230+00:00",
        "meta_object_name": "SILVERSAT",
        "meta_object_id": "1998-067XV",
        "meta_epoch": "2025-12-08T17:33:40.093920",
        "meta_mean_motion": 15.50878297,
        "meta_eccentricity": 0.0005012,
        "meta_inclination": 51.6297,
        "meta_ra_of_asc_node": 162.2763,
        "meta_arg_of_pericenter": 204.4469,
        "meta_mean_anomaly": 155.6283,
        "meta_ephemeris_type": 0,
        "meta_classification_type": "U",
        "meta_norad_cat_id": 66909,
        "meta_element_set_no": 999,
        "meta_rev_at_epoch": 99,
        "meta_bstar": 0.0013404205,
        "meta_mean_motion_dot": 0.00079284,
        "meta_mean_motion_ddot": 0,
        "tle_line1": "1 66909U 98067XV  25342.73171405  .00079284  00000+0  13404-2 0  9997",
        "tle_line2": "2 66909  51.6297 162.2763 0005012 204.4469 155.6283 15.50878297   996"
      },
      "geometry": {
        "type": "Point",
        "coordinates": [
          86.11391839903735,
          -50.16309965296256
        ]
      }
    },
    {
      "type": "Feature",
      "properties": {
        "norad_id": 66910,
        "name": "1998-067XW",
        "group": "last-30-days",
        "lat": -48.149112455749886,
        "lon": 95.65530619963391,
        "alt_km": 418.1253704661376,
        "timestamp": "2025-12-09T14:52:24.943242+00:00",
        "meta_object_name": "1998-067XW",
        "meta_object_id": "1998-067XW",
        "meta_epoch": "2025-12-08T22:10:28.282080",
        "meta_mean_motion": 15.51110893,
        "meta_eccentricity": 0.0005927,
        "meta_inclination": 51.6296,
        "meta_ra_of_asc_node": 161.31,
        "meta_arg_of_pericenter": 189.6161,
        "meta_mean_anomaly": 170.4716,
        "meta_ephemeris_type": 0,
        "meta_classification_type": "U",
        "meta_norad_cat_id": 66910,
        "meta_element_set_no": 999,
        "meta_rev_at_epoch": 102,
        "meta_bstar": 0.0011401,
        "meta_mean_motion_dot": 0.00067841,
        "meta_mean_motion_ddot": 0,
        "tle_line1": "1 66910U 98067XW  25342.92393845  .00067841  00000+0  11401-2 0  9995",
        "tle_line2": "2 66910  51.6296 161.3100 0005927 189.6161 170.4716 15.51110893  1023"
      },
      "geometry": {
        "type": "Point",
        "coordinates": [
          95.65530619963391,
          -48.149112455749886
        ]
      }
    },
    {
      "type": "Feature",
      "properties": {
        "norad_id": 66911,
        "name": "1998-067XX",
        "group": "last-30-days",
        "lat": -47.49464547214825,
        "lon": 98.02635182705971,
        "alt_km": 417.698200937386,
        "timestamp": "2025-12-09T14:52:24.943267+00:00",
        "meta_object_name": "1998-067XX",
        "meta_object_id": "1998-067XX",
        "meta_epoch": "2025-12-09T02:48:25.031232",
        "meta_mean_motion": 15.51276016,
        "meta_eccentricity": 0.00057067,
        "meta_inclination": 51.6296,
        "meta_ra_of_asc_node": 160.3494,
        "meta_arg_of_pericenter": 191.2278,
        "meta_mean_anomaly": 168.8584,
        "meta_ephemeris_type": 0,
        "meta_classification_type": "U",
        "meta_norad_cat_id": 66911,
        "meta_element_set_no": 999,
        "meta_rev_at_epoch": 104,
        "meta_bstar": 0.0013712435,
        "meta_mean_motion_dot": 0.00082324,
        "meta_mean_motion_ddot": 0,
        "tle_line1": "1 66911U 98067XX  25343.11695638  .00082324  00000+0  13712-2 0  9993",
        "tle_line2": "2 66911  51.6296 160.3494 0005706 191.2278 168.8584 15.51276016  1048"
      },
      "geometry": {
        "type": "Point",
        "coordinates": [
          98.02635182705971,
          -47.49464547214825
        ]
      }
    },
    {
      "type": "Feature",
      "properties": {
        "norad_id": 66912,
        "name": "1998-067XY",
        "group": "last-30-days",
        "lat": -51.077547916420514,
        "lon": 79.02766594410004,
        "alt_km": 418.1922605645259,
        "timestamp": "2025-12-09T14:52:24.943284+00:00",
        "meta_object_name": "1998-067XY",
        "meta_object_id": "1998-067XY",
        "meta_epoch": "2025-12-08T19:07:24.190464",
        "meta_mean_motion": 15.50590013,
        "meta_eccentricity": 0.00050406,
        "meta_inclination": 51.6301,
        "meta_ra_of_asc_node": 161.961,
        "meta_arg_of_pericenter": 202.8515,
        "meta_mean_anomaly": 157.2251,
        "meta_ephemeris_type": 0,
        "meta_classification_type": "U",
        "meta_norad_cat_id": 66912,
        "meta_element_set_no": 999,
        "meta_rev_at_epoch": 99,
        "meta_bstar": 0.0010396633,
        "meta_mean_motion_dot": 0.00060617,
        "meta_mean_motion_ddot": 0,
        "tle_line1": "1 66912U 98067XY  25342.79680776  .00060617  00000+0  10397-2 0  9991",
        "tle_line2": "2 66912  51.6301 161.9610 0005040 202.8515 157.2251 15.50590013   998"
      },
      "geometry": {
        "type": "Point",
        "coordinates": [
          79.02766594410004,
          -51.077547916420514
        ]
      }
    },
    {
      "type": "Feature",
      "properties": {
        "norad_id": 66913,
        "name": "2025-284A",
        "group": "last-30-days",
        "lat": -65.5903118503407,
        "lon": 111.83509778846062,
        "alt_km": 512.0589365775531,
        "timestamp": "2025-12-09T14:52:24.943295+00:00",
        "meta_object_name": "2025-284A",
        "meta_object_id": "2025-284A",
        "meta_epoch": "2025-12-09T07:15:51.775776",
        "meta_mean_motion": 15.18815717,
        "meta_eccentricity": 0.00080685,
        "meta_inclination": 80.4054,
        "meta_ra_of_asc_node": 134.1215,
        "meta_arg_of_pericenter": 257.9833,
        "meta_mean_anomaly": 102.0491,
        "meta_ephemeris_type": 0,
        "meta_classification_type": "U",
        "meta_norad_cat_id": 66913,
        "meta_element_set_no": 999,
        "meta_rev_at_epoch": 60,
        "meta_bstar": 0.00067487773,
        "meta_mean_motion_dot": 0.00014088,
        "meta_mean_motion_ddot": 0,
        "tle_line1": "1 66913U 25284A   25343.30268259  .00014088  00000+0  67488-3 0  9994",
        "tle_line2": "2 66913  80.4054 134.1215 0008068 257.9833 102.0491 15.18815717   601"
      },
      "geometry": {
        "type": "Point",
        "coordinates": [
          111.83509778846062,
          -65.5903118503407
        ]
      }
    }
  ]
}